[{"OBJECT_NAME":"SL-14 R/B","OBJECT_ID":"1986-006B","EPOCH":"2026-04-12T16:59:41.866080","MEAN_MOTION":14.86876633,"ECCENTRICITY":0.0077049,"INCLINATION":82.5277,"RA_OF_ASC_NODE":227.7175,"ARG_OF_PERICENTER":158.9122,"MEAN_ANOMALY":201.5303,"EPHEMERIS_TYPE":0,"CLASSIFICATION_TYPE":"U","NORAD_CAT_ID":16496,"ELEMENT_SET_NO":999,"REV_AT_EPOCH":15426,"BSTAR":6.2764e-5,"MEAN_MOTION_DOT":6.19e-6,"MEAN_MOTION_DDOT":0},{"OBJECT_NAME":"COSMOS 1743","OBJECT_ID":"1986-034A","EPOCH":"2026-04-12T19:55:54.202944","MEAN_MOTION":15.61696653,"ECCENTRICITY":0.0006697,"INCLINATION":82.5302,"RA_OF_ASC_NODE":37.9182,"ARG_OF_PERICENTER":133.4623,"MEAN_ANOMALY":226.7192,"EPHEMERIS_TYPE":0,"CLASSIFICATION_TYPE":"U","NORAD_CAT_ID":16719,"ELEMENT_SET_NO":999,"REV_AT_EPOCH":18557,"BSTAR":0.00037667,"MEAN_MOTION_DOT":0.00032597,"MEAN_MOTION_DDOT":0},{"OBJECT_NAME":"SL-14 R/B","OBJECT_ID":"1986-046B","EPOCH":"2026-04-12T19:42:35.612064","MEAN_MOTION":14.85625976,"ECCENTRICITY":0.0024549,"INCLINATION":82.483,"RA_OF_ASC_NODE":47.9284,"ARG_OF_PERICENTER":113.6279,"MEAN_ANOMALY":246.7518,"EPHEMERIS_TYPE":0,"CLASSIFICATION_TYPE":"U","NORAD_CAT_ID":16792,"ELEMENT_SET_NO":999,"REV_AT_EPOCH":13147,"BSTAR":3.5072e-5,"MEAN_MOTION_DOT":3.3e-6,"MEAN_MOTION_DDOT":0},{"OBJECT_NAME":"SL-14 R/B","OBJECT_ID":"1986-055B","EPOCH":"2026-04-12T10:19:17.209920","MEAN_MOTION":14.8567452,"ECCENTRICITY":0.0017886,"INCLINATION":82.5169,"RA_OF_ASC_NODE":94.9493,"ARG_OF_PERICENTER":216.6637,"MEAN_ANOMALY":303.9183,"EPHEMERIS_TYPE":0,"CLASSIFICATION_TYPE":"U","NORAD_CAT_ID":16882,"ELEMENT_SET_NO":999,"REV_AT_EPOCH":12437,"BSTAR":3.6348e-5,"MEAN_MOTION_DOT":3.4e-6,"MEAN_MOTION_DDOT":0},{"OBJECT_NAME":"AJISAI (EGS)","OBJECT_ID":"1986-061A","EPOCH":"2026-04-12T20:35:40.862976","MEAN_MOTION":12.44515755,"ECCENTRICITY":0.0011389,"INCLINATION":50.0118,"RA_OF_ASC_NODE":348.2821,"ARG_OF_PERICENTER":14.89,"MEAN_ANOMALY":108.9977,"EPHEMERIS_TYPE":0,"CLASSIFICATION_TYPE":"U","NORAD_CAT_ID":16908,"ELEMENT_SET_NO":999,"REV_AT_EPOCH":47225,"BSTAR":7.3738e-5,"MEAN_MOTION_DOT":-8.7e-7,"MEAN_MOTION_DDOT":0},{"OBJECT_NAME":"SL-14 R/B","OBJECT_ID":"1987-024B","EPOCH":"2026-04-12T20:12:48.148416","MEAN_MOTION":14.86166975,"ECCENTRICITY":0.0019134,"INCLINATION":82.5277,"RA_OF_ASC_NODE":60.6574,"ARG_OF_PERICENTER":143.5828,"MEAN_ANOMALY":216.6694,"EPHEMERIS_TYPE":0,"CLASSIFICATION_TYPE":"U","NORAD_CAT_ID":17567,"ELEMENT_SET_NO":999,"REV_AT_EPOCH":9320,"BSTAR":3.5323e-5,"MEAN_MOTION_DOT":3.35e-6,"MEAN_MOTION_DDOT":0},{"OBJECT_NAME":"COSMOS 1833","OBJECT_ID":"1987-027A","EPOCH":"2026-04-12T16:44:57.391872","MEAN_MOTION":14.13039811,"ECCENTRICITY":0.0022656,"INCLINATION":70.9162,"RA_OF_ASC_NODE":254.5329,"ARG_OF_PERICENTER":162.8836,"MEAN_ANOMALY":197.3055,"EPHEMERIS_TYPE":0,"CLASSIFICATION_TYPE":"U","NORAD_CAT_ID":17589,"ELEMENT_SET_NO":999,"REV_AT_EPOCH":1512,"BSTAR":-0.00013791,"MEAN_MOTION_DOT":-3.06e-6,"MEAN_MOTION_DDOT":0},{"OBJECT_NAME":"SL-16 R/B","OBJECT_ID":"1987-027B","EPOCH":"2026-04-12T17:08:06.512064","MEAN_MOTION":14.17169894,"ECCENTRICITY":0.0002993,"INCLINATION":71.0037,"RA_OF_ASC_NODE":204.7949,"ARG_OF_PERICENTER":54.1021,"MEAN_ANOMALY":306.038,"EPHEMERIS_TYPE":0,"CLASSIFICATION_TYPE":"U","NORAD_CAT_ID":17590,"ELEMENT_SET_NO":999,"REV_AT_EPOCH":2016,"BSTAR":-8.4598e-5,"MEAN_MOTION_DOT":-2.19e-6,"MEAN_MOTION_DDOT":0},{"OBJECT_NAME":"SL-14 R/B","OBJECT_ID":"1987-038B","EPOCH":"2026-04-12T17:16:44.925024","MEAN_MOTION":14.85402409,"ECCENTRICITY":0.002045,"INCLINATION":82.4986,"RA_OF_ASC_NODE":264.7386,"ARG_OF_PERICENTER":54.914,"MEAN_ANOMALY":305.399,"EPHEMERIS_TYPE":0,"CLASSIFICATION_TYPE":"U","NORAD_CAT_ID":17912,"ELEMENT_SET_NO":999,"REV_AT_EPOCH":8428,"BSTAR":3.4862e-5,"MEAN_MOTION_DOT":3.26e-6,"MEAN_MOTION_DDOT":0},{"OBJECT_NAME":"COSMOS 1844","OBJECT_ID":"1987-041A","EPOCH":"2026-04-12T20:06:52.874208","MEAN_MOTION":14.14564992,"ECCENTRICITY":0.003219,"INCLINATION":70.9006,"RA_OF_ASC_NODE":322.1505,"ARG_OF_PERICENTER":327.5808,"MEAN_ANOMALY":32.3335,"EPHEMERIS_TYPE":0,"CLASSIFICATION_TYPE":"U","NORAD_CAT_ID":17973,"ELEMENT_SET_NO":999,"REV_AT_EPOCH":841,"BSTAR":4.1038e-6,"MEAN_MOTION_DOT":-4.1e-7,"MEAN_MOTION_DDOT":0},{"OBJECT_NAME":"SL-14 R/B","OBJECT_ID":"1987-055B","EPOCH":"2026-04-12T16:34:48.201888","MEAN_MOTION":14.8566185,"ECCENTRICITY":0.0019114,"INCLINATION":82.4981,"RA_OF_ASC_NODE":316.9856,"ARG_OF_PERICENTER":260.6288,"MEAN_ANOMALY":99.2767,"EPHEMERIS_TYPE":0,"CLASSIFICATION_TYPE":"U","NORAD_CAT_ID":18153,"ELEMENT_SET_NO":999,"REV_AT_EPOCH":7498,"BSTAR":2.803e-5,"MEAN_MOTION_DOT":2.68e-6,"MEAN_MOTION_DDOT":0},{"OBJECT_NAME":"COSMOS 1867","OBJECT_ID":"1987-060A","EPOCH":"2026-04-12T16:09:38.724768","MEAN_MOTION":14.31508528,"ECCENTRICITY":0.0015125,"INCLINATION":65.011,"RA_OF_ASC_NODE":211.5307,"ARG_OF_PERICENTER":280.5014,"MEAN_ANOMALY":79.4366,"EPHEMERIS_TYPE":0,"CLASSIFICATION_TYPE":"U","NORAD_CAT_ID":18187,"ELEMENT_SET_NO":999,"REV_AT_EPOCH":2480,"BSTAR":1.3845e-5,"MEAN_MOTION_DOT":-6.3e-7,"MEAN_MOTION_DDOT":0},{"OBJECT_NAME":"SL-14 R/B","OBJECT_ID":"1988-001B","EPOCH":"2026-04-12T16:31:30.800352","MEAN_MOTION":14.85563734,"ECCENTRICITY":0.0019403,"INCLINATION":82.5145,"RA_OF_ASC_NODE":163.3925,"ARG_OF_PERICENTER":123.5147,"MEAN_ANOMALY":236.7926,"EPHEMERIS_TYPE":0,"CLASSIFICATION_TYPE":"U","NORAD_CAT_ID":18749,"ELEMENT_SET_NO":999,"REV_AT_EPOCH":4707,"BSTAR":2.7178e-5,"MEAN_MOTION_DOT":2.6e-6,"MEAN_MOTION_DDOT":0},{"OBJECT_NAME":"COSMOS 1933","OBJECT_ID":"1988-020A","EPOCH":"2026-04-12T19:12:40.758336","MEAN_MOTION":15.18319422,"ECCENTRICITY":0.0005498,"INCLINATION":82.5144,"RA_OF_ASC_NODE":217.1562,"ARG_OF_PERICENTER":85.9741,"MEAN_ANOMALY":274.2122,"EPHEMERIS_TYPE":0,"CLASSIFICATION_TYPE":"U","NORAD_CAT_ID":18958,"ELEMENT_SET_NO":999,"REV_AT_EPOCH":5540,"BSTAR":0.00015333,"MEAN_MOTION_DOT":3.177e-5,"MEAN_MOTION_DDOT":0},{"OBJECT_NAME":"SL-3 R/B","OBJECT_ID":"1988-032B","EPOCH":"2026-04-12T21:31:24.893760","MEAN_MOTION":15.2029394,"ECCENTRICITY":0.0027562,"INCLINATION":97.5225,"RA_OF_ASC_NODE":86.0465,"ARG_OF_PERICENTER":113.2606,"MEAN_ANOMALY":247.1535,"EPHEMERIS_TYPE":0,"CLASSIFICATION_TYPE":"U","NORAD_CAT_ID":19046,"ELEMENT_SET_NO":999,"REV_AT_EPOCH":5730,"BSTAR":0.00015641,"MEAN_MOTION_DOT":3.36e-5,"MEAN_MOTION_DDOT":0},{"OBJECT_NAME":"SL-16 R/B","OBJECT_ID":"1988-039B","EPOCH":"2026-04-12T10:48:01.003968","MEAN_MOTION":14.19622103,"ECCENTRICITY":0.0023994,"INCLINATION":71.0173,"RA_OF_ASC_NODE":357.1631,"ARG_OF_PERICENTER":286.4415,"MEAN_ANOMALY":73.4073,"EPHEMERIS_TYPE":0,"CLASSIFICATION_TYPE":"U","NORAD_CAT_ID":19120,"ELEMENT_SET_NO":999,"REV_AT_EPOCH":96317,"BSTAR":9.1747e-5,"MEAN_MOTION_DOT":1.46e-6,"MEAN_MOTION_DDOT":0},{"OBJECT_NAME":"COSMOS 1953","OBJECT_ID":"1988-050A","EPOCH":"2026-04-12T19:00:30.444192","MEAN_MOTION":15.29066674,"ECCENTRICITY":0.0010967,"INCLINATION":82.5056,"RA_OF_ASC_NODE":123.9301,"ARG_OF_PERICENTER":14.6073,"MEAN_ANOMALY":345.5481,"EPHEMERIS_TYPE":0,"CLASSIFICATION_TYPE":"U","NORAD_CAT_ID":19210,"ELEMENT_SET_NO":999,"REV_AT_EPOCH":4299,"BSTAR":0.00017388,"MEAN_MOTION_DOT":4.946e-5,"MEAN_MOTION_DDOT":0}]
