SL-14 R/B               
1 16496U 86006B   26102.70812345  .00000619  00000+0  62764-4 0  9991
2 16496  82.5277 227.7175 0077049 158.9122 201.5303 14.86876633154269
COSMOS 1743             
1 16719U 86034A   26102.83048846  .00032597  00000+0  37667-3 0  9994
2 16719  82.5302  37.9182 0006697 133.4623 226.7192 15.61696653185579
SL-14 R/B               
1 16792U 86046B   26102.82124551  .00000330  00000+0  35072-4 0  9994
2 16792  82.4830  47.9284 0024549 113.6279 246.7518 14.85625976131471
SL-14 R/B               
1 16882U 86055B   26102.43006030  .00000340  00000+0  36348-4 0  9990
2 16882  82.5169  94.9493 0017886 216.6637 303.9183 14.85674520124373
AJISAI (EGS)            
1 16908U 86061A   26102.85811184 -.00000087  00000+0  73738-4 0  9999
2 16908  50.0118 348.2821 0011389  14.8900 108.9977 12.44515755472253
SL-14 R/B               
1 17567U 87024B   26102.84222394  .00000335  00000+0  35323-4 0  9992
2 17567  82.5277  60.6574 0019134 143.5828 216.6694 14.86166975 93207
COSMOS 1833             
1 17589U 87027A   26102.69788648 -.00000306  00000+0 -13791-3 0  9995
2 17589  70.9162 254.5329 0022656 162.8836 197.3055 14.13039811 15122
SL-16 R/B               
1 17590U 87027B   26102.71396426 -.00000219  00000+0 -84598-4 0  9996
2 17590  71.0037 204.7949 0002993  54.1021 306.0380 14.17169894 20162
SL-14 R/B               
1 17912U 87038B   26102.71996441  .00000326  00000+0  34862-4 0  9995
2 17912  82.4986 264.7386 0020450  54.9140 305.3990 14.85402409 84287
COSMOS 1844             
1 17973U 87041A   26102.83811197 -.00000041  00000+0  41038-5 0  9992
2 17973  70.9006 322.1505 0032190 327.5808  32.3335 14.14564992  8414
SL-14 R/B               
1 18153U 87055B   26102.69083567  .00000268  00000+0  28030-4 0  9990
2 18153  82.4981 316.9856 0019114 260.6288  99.2767 14.85661850 74980
COSMOS 1867             
1 18187U 87060A   26102.67336487 -.00000063  00000+0  13845-4 0  9995
2 18187  65.0110 211.5307 0015125 280.5014  79.4366 14.31508528 24809
SL-14 R/B               
1 18749U 88001B   26102.68855093  .00000260  00000+0  27178-4 0  9997
2 18749  82.5145 163.3925 0019403 123.5147 236.7926 14.85563734 47074
COSMOS 1933             
1 18958U 88020A   26102.80047174  .00003177  00000+0  15333-3 0  9996
2 18958  82.5144 217.1562 0005498  85.9741 274.2122 15.18319422 55401
SL-3 R/B                
1 19046U 88032B   26102.89681590  .00003360  00000+0  15641-3 0  9999
2 19046  97.5225  86.0465 0027562 113.2606 247.1535 15.20293940 57309
SL-16 R/B               
1 19120U 88039B   26102.45001162  .00000146  00000+0  91747-4 0  9993
2 19120  71.0173 357.1631 0023994 286.4415  73.4073 14.19622103963176
COSMOS 1953             
1 19210U 88050A   26102.79201903  .00004946  00000+0  17388-3 0  9998
2 19210  82.5056 123.9301 0010967  14.6073 345.5481 15.29066674 42994
